{
  "type": "FeatureCollection",
  "features": [
    {
      "type": "Feature",
      "properties": {
        "norad_id": 66411,
        "name": "ZK-1A R/B",
        "group": "last-30-days",
        "lat": -50.21130982990275,
        "lon": 59.964662354910566,
        "alt_km": 463.15650487301536,
        "timestamp": "2025-12-08T08:58:59.555607+00:00",
        "meta_object_name": "ZK-1A R/B",
        "meta_object_id": "2025-256C",
        "meta_epoch": "2025-12-07T22:00:49.054752",
        "meta_mean_motion": 15.01812604,
        "meta_eccentricity": 0.02287865,
        "meta_inclination": 98.3228,
        "meta_ra_of_asc_node": 49.3505,
        "meta_arg_of_pericenter": 261.0726,
        "meta_mean_anomaly": 96.4536,
        "meta_ephemeris_type": 0,
        "meta_classification_type": "U",
        "meta_norad_cat_id": 66411,
        "meta_element_set_no": 999,
        "meta_rev_at_epoch": 432,
        "meta_bstar": 0.00079727601,
        "meta_mean_motion_dot": 0.00018346,
        "meta_mean_motion_ddot": 0,
        "tle_line1": "1 66411U 25256C   25341.91723443  .00018346  00000+0  79728-3 0  9993",
        "tle_line2": "2 66411  98.3228  49.3505 0228786 261.0726  96.4536 15.01812604  4325"
      },
      "geometry": {
        "type": "Point",
        "coordinates": [
          59.964662354910566,
          -50.21130982990275
        ]
      }
    },
    {
      "type": "Feature",
      "properties": {
        "norad_id": 66412,
        "name": "HULIANWANG DIGUI 13A",
        "group": "last-30-days",
        "lat": 47.839272317131986,
        "lon": -11.618000012623318,
        "alt_km": 814.920656687349,
        "timestamp": "2025-12-08T08:58:59.555618+00:00",
        "meta_object_name": "HULIANWANG DIGUI 13A",
        "meta_object_id": "2025-258A",
        "meta_epoch": "2025-12-07T17:26:33.751392",
        "meta_mean_motion": 14.21250718,
        "meta_eccentricity": 0.00096493,
        "meta_inclination": 50.0044,
        "meta_ra_of_asc_node": 283.107,
        "meta_arg_of_pericenter": 339.1083,
        "meta_mean_anomaly": 20.9434,
        "meta_ephemeris_type": 0,
        "meta_classification_type": "U",
        "meta_norad_cat_id": 66412,
        "meta_element_set_no": 999,
        "meta_rev_at_epoch": 394,
        "meta_bstar": 0.00032412473,
        "meta_mean_motion_dot": 5.52e-06,
        "meta_mean_motion_ddot": 0,
        "tle_line1": "1 66412U 25258A   25341.72677953  .00000552  00000+0  32412-3 0  9998",
        "tle_line2": "2 66412  50.0044 283.1070 0009649 339.1083  20.9434 14.21250718  3949"
      },
      "geometry": {
        "type": "Point",
        "coordinates": [
          -11.618000012623318,
          47.839272317131986
        ]
      }
    },
    {
      "type": "Feature",
      "properties": {
        "norad_id": 66413,
        "name": "HULIANWANG DIGUI 13B",
        "group": "last-30-days",
        "lat": 21.30091161918169,
        "lon": -60.4254774147928,
        "alt_km": 816.9085084489798,
        "timestamp": "2025-12-08T08:58:59.555629+00:00",
        "meta_object_name": "HULIANWANG DIGUI 13B",
        "meta_object_id": "2025-258B",
        "meta_epoch": "2025-12-07T17:39:20.776896",
        "meta_mean_motion": 14.20568252,
        "meta_eccentricity": 0.00084033,
        "meta_inclination": 50.0028,
        "meta_ra_of_asc_node": 283.142,
        "meta_arg_of_pericenter": 336.6318,
        "meta_mean_anomaly": 23.4211,
        "meta_ephemeris_type": 0,
        "meta_classification_type": "U",
        "meta_norad_cat_id": 66413,
        "meta_element_set_no": 999,
        "meta_rev_at_epoch": 394,
        "meta_bstar": 0.00040277083,
        "meta_mean_motion_dot": 7.14e-06,
        "meta_mean_motion_ddot": 0,
        "tle_line1": "1 66413U 25258B   25341.73565714  .00000714  00000+0  40277-3 0  9999",
        "tle_line2": "2 66413  50.0028 283.1420 0008403 336.6318  23.4211 14.20568252  3946"
      },
      "geometry": {
        "type": "Point",
        "coordinates": [
          -60.4254774147928,
          21.30091161918169
        ]
      }
    },
    {
      "type": "Feature",
      "properties": {
        "norad_id": 66414,
        "name": "HULIANWANG DIGUI 13C",
        "group": "last-30-days",
        "lat": 33.34759863369207,
        "lon": -46.01423625707104,
        "alt_km": 816.7848991003302,
        "timestamp": "2025-12-08T08:58:59.555639+00:00",
        "meta_object_name": "HULIANWANG DIGUI 13C",
        "meta_object_id": "2025-258C",
        "meta_epoch": "2025-12-07T20:56:56.145120",
        "meta_mean_motion": 14.20411501,
        "meta_eccentricity": 0.00083434,
        "meta_inclination": 50.0056,
        "meta_ra_of_asc_node": 282.5518,
        "meta_arg_of_pericenter": 340.5242,
        "meta_mean_anomaly": 19.535,
        "meta_ephemeris_type": 0,
        "meta_classification_type": "U",
        "meta_norad_cat_id": 66414,
        "meta_element_set_no": 999,
        "meta_rev_at_epoch": 396,
        "meta_bstar": 0.00045717883,
        "meta_mean_motion_dot": 8.29e-06,
        "meta_mean_motion_ddot": 0,
        "tle_line1": "1 66414U 25258C   25341.87287205  .00000829  00000+0  45718-3 0  9993",
        "tle_line2": "2 66414  50.0056 282.5518 0008343 340.5242  19.5350 14.20411501  3968"
      },
      "geometry": {
        "type": "Point",
        "coordinates": [
          -46.01423625707104,
          33.34759863369207
        ]
      }
    },
    {
      "type": "Feature",
      "properties": {
        "norad_id": 66415,
        "name": "HULIANWANG DIGUI 13D",
        "group": "last-30-days",
        "lat": 49.72416766376643,
        "lon": 2.573144306672853,
        "alt_km": 814.313217959042,
        "timestamp": "2025-12-08T08:58:59.555649+00:00",
        "meta_object_name": "HULIANWANG DIGUI 13D",
        "meta_object_id": "2025-258D",
        "meta_epoch": "2025-12-07T15:42:47.052864",
        "meta_mean_motion": 14.21453961,
        "meta_eccentricity": 0.00091421,
        "meta_inclination": 50.0047,
        "meta_ra_of_asc_node": 283.3927,
        "meta_arg_of_pericenter": 345.1739,
        "meta_mean_anomaly": 14.8903,
        "meta_ephemeris_type": 0,
        "meta_classification_type": "U",
        "meta_norad_cat_id": 66415,
        "meta_element_set_no": 999,
        "meta_rev_at_epoch": 393,
        "meta_bstar": 0.00031057861,
        "meta_mean_motion_dot": 5.25e-06,
        "meta_mean_motion_ddot": 0,
        "tle_line1": "1 66415U 25258D   25341.65471126  .00000525  00000+0  31058-3 0  9992",
        "tle_line2": "2 66415  50.0047 283.3927 0009142 345.1739  14.8903 14.21453961  3938"
      },
      "geometry": {
        "type": "Point",
        "coordinates": [
          2.573144306672853,
          49.72416766376643
        ]
      }
    },
    {
      "type": "Feature",
      "properties": {
        "norad_id": 66416,
        "name": "HULIANWANG DIGUI 13E",
        "group": "last-30-days",
        "lat": 41.35784216842435,
        "lon": -31.91244349603192,
        "alt_km": 810.9829612145013,
        "timestamp": "2025-12-08T08:58:59.555660+00:00",
        "meta_object_name": "HULIANWANG DIGUI 13E",
        "meta_object_id": "2025-258E",
        "meta_epoch": "2025-12-06T21:16:19.765632",
        "meta_mean_motion": 14.21474244,
        "meta_eccentricity": 0.00059389,
        "meta_inclination": 49.996,
        "meta_ra_of_asc_node": 286.6631,
        "meta_arg_of_pericenter": 22.7186,
        "meta_mean_anomaly": 337.3988,
        "meta_ephemeris_type": 0,
        "meta_classification_type": "U",
        "meta_norad_cat_id": 66416,
        "meta_element_set_no": 999,
        "meta_rev_at_epoch": 382,
        "meta_bstar": 0.00039786891,
        "meta_mean_motion_dot": 7.18e-06,
        "meta_mean_motion_ddot": 0,
        "tle_line1": "1 66416U 25258E   25340.88633988  .00000718  00000+0  39787-3 0  9994",
        "tle_line2": "2 66416  49.9960 286.6631 0005938  22.7186 337.3988 14.21474244  3822"
      },
      "geometry": {
        "type": "Point",
        "coordinates": [
          -31.91244349603192,
          41.35784216842435
        ]
      }
    },
    {
      "type": "Feature",
      "properties": {
        "norad_id": 66417,
        "name": "HULIANWANG DIGUI 13F",
        "group": "last-30-days",
        "lat": 46.21815274419871,
        "lon": -18.443072812329238,
        "alt_km": 811.4410058809799,
        "timestamp": "2025-12-08T08:58:59.555671+00:00",
        "meta_object_name": "HULIANWANG DIGUI 13F",
        "meta_object_id": "2025-258F",
        "meta_epoch": "2025-12-06T14:29:09.906432",
        "meta_mean_motion": 14.21933133,
        "meta_eccentricity": 0.00102248,
        "meta_inclination": 50.0001,
        "meta_ra_of_asc_node": 287.8136,
        "meta_arg_of_pericenter": 341.4358,
        "meta_mean_anomaly": 18.618,
        "meta_ephemeris_type": 0,
        "meta_classification_type": "U",
        "meta_norad_cat_id": 66417,
        "meta_element_set_no": 999,
        "meta_rev_at_epoch": 378,
        "meta_bstar": 0.00035322897,
        "meta_mean_motion_dot": 6.26e-06,
        "meta_mean_motion_ddot": 0,
        "tle_line1": "1 66417U 25258F   25340.60358688  .00000626  00000+0  35323-3 0  9996",
        "tle_line2": "2 66417  50.0001 287.8136 0010224 341.4358  18.6180 14.21933133  3786"
      },
      "geometry": {
        "type": "Point",
        "coordinates": [
          -18.443072812329238,
          46.21815274419871
        ]
      }
    }
  ]
}